AOR-E (EGNOS/PRN 120)   
1 24307U 96053A   17040.24166788 -.00000149  00000-0  00000+0 0  9997
2 24307   2.3678  78.3806 0007761 234.2497 258.3778  1.00271725 74789
ARTEMIS (EGNOS/PRN 124) 
1 26863U 01029A   17039.86714708 -.00000389  00000-0  00000+0 0  9998
2 26863  12.5937  34.4022 0002820 305.9154 234.0015  1.00269053 58158
CRE (WAAS/PRN 138)      
1 28868U 05036A   17039.58742196 -.00000097  00000-0  00000+0 0  9994
2 28868   0.0111  28.5254 0002699 316.7548 257.7309  1.00271257 41905
CRW (WAAS/PRN 135)      
1 28884U 05041A   17040.44835869  .00000054  00000-0  00000+0 0  9997
2 28884   0.0615 279.4909 0002156  58.3819 190.2372  1.00273792 41383
IOR-W (EGNOS/PRN 126)   
1 28899U 05044A   17039.46629262 -.00000010  00000-0  00000+0 0  9997
2 28899   2.5488  10.0855 0003181 314.1403  46.2628  1.00271964 41253
MTSAT-2 (MSAS/PRN 137)  
1 28937U 06004A   17039.89538281 -.00000267  00000-0  00000+0 0  9998
2 28937   0.0514 269.3965 0003760  55.5444 281.5725  1.00271932 40104
AMR (WAAS/PRN 133)      
1 33278U 08039A   17040.54699178 -.00000162  00000-0  00000+0 0  9993
2 33278   3.0204   0.1892 0003014 325.5052 273.0412  1.00272028 31021
QZS-1 (QZSS/PRN 183)    
1 37158U 10045A   17036.72734479 -.00000186  00000-0  00000-0 0  9990
2 37158  40.7900 161.2397 0750136 270.0428 104.1731  1.00260341 23447
GSAT-8 (GAGAN/PRN 127)  
1 37605U 11022A   17040.15646571  .00000061  00000-0  00000+0 0  9990
2 37605   0.0170 283.4711 0008003   0.5811 326.8050  1.00269579 20996
LUCH 5A (SDCM/PRN 140)  
1 37951U 11074B   17040.23485185 -.00000071  00000-0  00000+0 0  9994
2 37951   1.5643 193.7127 0004608 115.5361  81.7219  1.00272856 18947
SES-5 (EGNOS/PRN 136)   
1 38652U 12036A   17040.04076063  .00000009  00000-0  00000+0 0  9992
2 38652   0.0476 261.9938 0002296  46.3481 210.6041  1.00271699 16822
GSAT-10 (GAGAN/PRN 128) 
1 38779U 12051B   17039.38413424 -.00000187  00000-0  00000+0 0  9998
2 38779   0.0830 269.5394 0001399  32.2351  58.1770  1.00270960 16047
LUCH 5B (SDCM/PRN 125)  
1 38977U 12061A   17040.17747640 -.00000156  00000-0  00000+0 0  9994
2 38977   3.2863  75.4792 0003420 233.9700 237.6239  1.00270644 15939
ASTRA 5B (EGNOS/PRN 123)
1 39617U 14011B   17039.98173295  .00000131  00000-0  00000+0 0  9991
2 39617   0.0550 302.0208 0002893  16.9234 205.2125  1.00273156 10621
LUCH 5V (SDCM/PRN 141)  
1 39727U 14023A   17040.02821708 -.00000290  00000-0  00000+0 0  9999
2 39727   2.9547 299.2411 0003726  27.6297 277.2950  1.00271862528279
GSAT-15 (GAGAN/PRN 139) 
1 41028U 15065A   17040.10285075  .00000000  00000-0  10000-3 0  9996
2 41028   0.0701 270.3874 0001775   1.3006 358.1695  1.00265933  4433
